GPS BIIF-11             
1 41019U 15062A   26065.57045997 -.00000077  00000+0  00000+0 0  9997
2 41019  56.8944  34.7646 0111447 231.5107 127.4729  2.00567148 75771
ELEKTRO-L 2             
1 41105U 15074A   26065.86390215 -.00000119  00000+0  00000+0 0  9991
2 41105   6.4373  71.7830 0003279 242.4752 146.8105  1.00271066 37489
GSAT0209 (GALILEO 12)   
1 41174U 15079A   26064.80003714  .00000008  00000+0  00000+0 0  9996
2 41174  55.7602 104.0969 0004738 323.5937  36.4535  1.70474567 63014
GSAT0208 (GALILEO 11)   
1 41175U 15079B   26062.08735472  .00000015  00000+0  00000+0 0  9996
2 41175  55.7569 104.1685 0004163 323.7694  36.2890  1.70474318 63383
GPS BIIF-12             
1 41328U 16007A   26065.15731679 -.00000004  00000+0  00000+0 0  9993
2 41328  55.4568  93.5431 0095487 246.0433 113.0135  2.00556703 73779
GSAT0211 (GALILEO 14)   
1 41549U 16030A   26064.55763471  .00000016  00000+0  00000+0 0  9994
2 41549  55.1310 224.5419 0003581  25.3389 334.6168  1.70473873 60900
GSAT0210 (GALILEO 13)   
1 41550U 16030B   26064.81491220  .00000018  00000+0  00000+0 0  9997
2 41550  55.1283 224.5329 0001200 195.2538 164.6814  1.70473987 60905
INSAT-3DR               
1 41752U 16054A   26066.09545542 -.00000079  00000+0  00000+0 0  9994
2 41752   0.0541  94.8933 0013025 187.3158 350.9448  1.00272730 34799
GSAT0207 (GALILEO 15)   
1 41859U 16069A   26065.67988142  .00000006  00000+0  00000+0 0  9997
2 41859  55.4310 103.9217 0005204 309.5782  50.4510  1.70474529 57652
GSAT0212 (GALILEO 16)   
1 41860U 16069B   26065.53343426  .00000006  00000+0  00000+0 0  9994
2 41860  55.4282 103.9209 0003651 335.6130  24.4456  1.70474714 57908
GSAT0213 (GALILEO 17)   
1 41861U 16069C   26064.72771558  .00000008  00000+0  00000+0 0  9998
2 41861  55.4302 103.9512 0005295 293.0089  67.0145  1.70474927 57752
GSAT0214 (GALILEO 18)   
1 41862U 16069D   26065.46034919  .00000006  00000+0  00000+0 0  9992
2 41862  55.4293 103.9236 0004341 297.3479  62.6840  1.70474815 57890
GOES 16                 
1 41866U 16071A   26066.12961598 -.00000093  00000+0  00000+0 0  9992
2 41866   0.1375  89.0814 0002367 223.3484 154.3671  1.00272234 34080
GSAT-17                 
1 42815U 17040B   26066.09926876 -.00000260  00000+0  00000+0 0  9996
2 42815   0.0200 257.3183 0004895  32.6380   4.0777  1.00271242 31762
GSAT0215 (GALILEO 19)   
1 43055U 17079A   26062.43085966  .00000010  00000+0  00000+0 0  9997
2 43055  55.1080 224.4135 0000631  13.1955 346.7446  1.70474475 51181
GSAT0216 (GALILEO 20)   
1 43056U 17079B   26063.89524153  .00000013  00000+0  00000+0 0  9998
2 43056  55.1080 224.3734 0001703 320.6652  39.2594  1.70474648 51222
GSAT0217 (GALILEO 21)   
1 43057U 17079C   26065.28916355  .00000020  00000+0  00000+0 0  9991
2 43057  55.1073 224.3328 0002074 355.7864   4.1520  1.70474591 51238
